[{"OBJECT_NAME":"STARLINK-35460","OBJECT_ID":"2025-253K","EPOCH":"2026-03-09T10:38:29.169888","MEAN_MOTION":15.27567867,"ECCENTRICITY":0.00014441,"INCLINATION":43.0041,"RA_OF_ASC_NODE":214.1724,"ARG_OF_PERICENTER":270.1905,"MEAN_ANOMALY":89.8781,"EPHEMERIS_TYPE":0,"CLASSIFICATION_TYPE":"U","NORAD_CAT_ID":66328,"ELEMENT_SET_NO":999,"REV_AT_EPOCH":2020,"BSTAR":0.00037033081,"MEAN_MOTION_DOT":9.939e-5,"MEAN_MOTION_DDOT":0},{"OBJECT_NAME":"WT 1B","OBJECT_ID":"2019-032G","EPOCH":"2026-03-09T21:42:21.881088","MEAN_MOTION":15.25021485,"ECCENTRICITY":0.0008099,"INCLINATION":44.9738,"RA_OF_ASC_NODE":242.0209,"ARG_OF_PERICENTER":49.7728,"MEAN_ANOMALY":310.3861,"EPHEMERIS_TYPE":0,"CLASSIFICATION_TYPE":"U","NORAD_CAT_ID":44316,"ELEMENT_SET_NO":999,"REV_AT_EPOCH":37191,"BSTAR":0.00065022477,"MEAN_MOTION_DOT":0.00016297,"MEAN_MOTION_DDOT":0}]
